[{"COMMENT":"GENERATED VIA SPACETRACK.ORG API","ORIGINATOR":"18 SPCS","NORAD_CAT_ID":"43476","OBJECT_NAME":"GRACE-FO 1","OBJECT_TYPE":"PAYLOAD","CLASSIFICATION_TYPE":"U","INTLDES":"18047A","EPOCH":"2023-06-12 04:00:13","EPOCH_MICROSECONDS":"276512","MEAN_MOTION":"15.26134755","ECCENTRICITY":"0.0016446","INCLINATION":"88.9876","RA_OF_ASC_NODE":"349.8419","ARG_OF_PERICENTER":"61.9734","MEAN_ANOMALY":"298.3175","EPHEMERIS_TYPE":"0","ELEMENT_SET_NO":"999","REV_AT_EPOCH":"28123","BSTAR":"0.00011675","MEAN_MOTION_DOT":"0.00003053","MEAN_MOTION_DDOT":"0","FILE":"3930809","TLE_LINE0":"0 GRACE-FO 1","TLE_LINE1":"1 43476U 18047A   23163.16682033  .00003053  00000-0  11675-3 0  9992","TLE_LINE2":"2 43476  88.9876 349.8419 0016446  61.9734 298.3175 15.26134755281231","OBJECT_ID":"2018-047A","OBJECT_NUMBER":"43476","SEMIMAJOR_AXIS":"6865.517","PERIOD":"94.356","APOGEE":"498.673","PERIGEE":"476.091","DECAYED":"0"},{"COMMENT":"GENERATED VIA SPACETRACK.ORG API","ORIGINATOR":"18 SPCS","NORAD_CAT_ID":"43476","OBJECT_NAME":"GRACE-FO 1","OBJECT_TYPE":"PAYLOAD","CLASSIFICATION_TYPE":"U","INTLDES":"18047A","EPOCH":"2023-06-12 13:26:45","EPOCH_MICROSECONDS":"162816","MEAN_MOTION":"15.26136885","ECCENTRICITY":"0.0016404","INCLINATION":"88.9876","RA_OF_ASC_NODE":"349.7884","ARG_OF_PERICENTER":"60.7063","MEAN_ANOMALY":"299.5822","EPHEMERIS_TYPE":"0","ELEMENT_SET_NO":"999","REV_AT_EPOCH":"28129","BSTAR":"0.0001146","MEAN_MOTION_DOT":"0.00002997","MEAN_MOTION_DDOT":"0","FILE":"3931287","TLE_LINE0":"0 GRACE-FO 1","TLE_LINE1":"1 43476U 18047A   23163.56024494  .00002997  00000-0  11460-3 0  9995","TLE_LINE2":"2 43476  88.9876 349.7884 0016404  60.7063 299.5822 15.26136885281296","OBJECT_ID":"2018-047A","OBJECT_NUMBER":"43476","SEMIMAJOR_AXIS":"6865.511","PERIOD":"94.356","APOGEE":"498.638","PERIGEE":"476.114","DECAYED":"0"},{"COMMENT":"GENERATED VIA SPACETRACK.ORG API","ORIGINATOR":"18 SPCS","NORAD_CAT_ID":"43476","OBJECT_NAME":"GRACE-FO 1","OBJECT_TYPE":"PAYLOAD","CLASSIFICATION_TYPE":"U","INTLDES":"18047A","EPOCH":"2023-06-12 21:18:51","EPOCH_MICROSECONDS":"681024","MEAN_MOTION":"15.26139351","ECCENTRICITY":"0.0016382","INCLINATION":"88.9876","RA_OF_ASC_NODE":"349.7438","ARG_OF_PERICENTER":"59.6104","MEAN_ANOMALY":"300.6762","EPHEMERIS_TYPE":"0","ELEMENT_SET_NO":"999","REV_AT_EPOCH":"28134","BSTAR":"0.00012144","MEAN_MOTION_DOT":"0.00003175","MEAN_MOTION_DDOT":"0","FILE":"3931605","TLE_LINE0":"0 GRACE-FO 1","TLE_LINE1":"1 43476U 18047A   23163.88809816  .00003175  00000-0  12144-3 0  9998","TLE_LINE2":"2 43476  88.9876 349.7438 0016382  59.6104 300.6762 15.26139351281343","OBJECT_ID":"2018-047A","OBJECT_NUMBER":"43476","SEMIMAJOR_AXIS":"6865.503","PERIOD":"94.356","APOGEE":"498.615","PERIGEE":"476.121","DECAYED":"0"},{"COMMENT":"GENERATED VIA SPACETRACK.ORG API","ORIGINATOR":"18 SPCS","NORAD_CAT_ID":"43476","OBJECT_NAME":"GRACE-FO 1","OBJECT_TYPE":"PAYLOAD","CLASSIFICATION_TYPE":"U","INTLDES":"18047A","EPOCH":"2023-06-13 13:03:04","EPOCH_MICROSECONDS":"627584","MEAN_MOTION":"15.26142447","ECCENTRICITY":"0.0016317","INCLINATION":"88.9874","RA_OF_ASC_NODE":"349.6546","ARG_OF_PERICENTER":"57.4843","MEAN_ANOMALY":"302.7979","EPHEMERIS_TYPE":"0","ELEMENT_SET_NO":"999","REV_AT_EPOCH":"28144","BSTAR":"0.00011085","MEAN_MOTION_DOT":"0.00002901","MEAN_MOTION_DDOT":"0","FILE":"3931944","TLE_LINE0":"0 GRACE-FO 1","TLE_LINE1":"1 43476U 18047A   23164.54380356  .00002901  00000-0  11085-3 0  9994","TLE_LINE2":"2 43476  88.9874 349.6546 0016317  57.4843 302.7979 15.26142447281448","OBJECT_ID":"2018-047A","OBJECT_NUMBER":"43476","SEMIMAJOR_AXIS":"6865.494","PERIOD":"94.356","APOGEE":"498.561","PERIGEE":"476.157","DECAYED":"0"},{"COMMENT":"GENERATED VIA SPACETRACK.ORG API","ORIGINATOR":"18 SPCS","NORAD_CAT_ID":"43476","OBJECT_NAME":"GRACE-FO 1","OBJECT_TYPE":"PAYLOAD","CLASSIFICATION_TYPE":"U","INTLDES":"18047A","EPOCH":"2023-06-13 20:55:11","EPOCH_MICROSECONDS":"44704","MEAN_MOTION":"15.26144406","ECCENTRICITY":"0.0016291","INCLINATION":"88.9874","RA_OF_ASC_NODE":"349.6101","ARG_OF_PERICENTER":"56.4234","MEAN_ANOMALY":"303.8567","EPHEMERIS_TYPE":"0","ELEMENT_SET_NO":"999","REV_AT_EPOCH":"28149","BSTAR":"0.00011275","MEAN_MOTION_DOT":"0.0000295","MEAN_MOTION_DDOT":"0","FILE":"3932371","TLE_LINE0":"0 GRACE-FO 1","TLE_LINE1":"1 43476U 18047A   23164.87165561  .00002950  00000-0  11275-3 0  9994","TLE_LINE2":"2 43476  88.9874 349.6101 0016291  56.4234 303.8567 15.26144406281496","OBJECT_ID":"2018-047A","OBJECT_NUMBER":"43476","SEMIMAJOR_AXIS":"6865.488","PERIOD":"94.355","APOGEE":"498.538","PERIGEE":"476.169","DECAYED":"0"},{"COMMENT":"GENERATED VIA SPACETRACK.ORG API","ORIGINATOR":"18 SPCS","NORAD_CAT_ID":"43476","OBJECT_NAME":"GRACE-FO 1","OBJECT_TYPE":"PAYLOAD","CLASSIFICATION_TYPE":"U","INTLDES":"18047A","EPOCH":"2023-06-14 12:39:23","EPOCH_MICROSECONDS":"791680","MEAN_MOTION":"15.26147682","ECCENTRICITY":"0.0016205","INCLINATION":"88.9872","RA_OF_ASC_NODE":"349.5209","ARG_OF_PERICENTER":"54.2898","MEAN_ANOMALY":"305.9856","EPHEMERIS_TYPE":"0","ELEMENT_SET_NO":"999","REV_AT_EPOCH":"28159","BSTAR":"0.00010804","MEAN_MOTION_DOT":"0.00002828","MEAN_MOTION_DDOT":"0","FILE":"3932965","TLE_LINE0":"0 GRACE-FO 1","TLE_LINE1":"1 43476U 18047A   23165.52735870  .00002828  00000-0  10804-3 0  9994","TLE_LINE2":"2 43476  88.9872 349.5209 0016205  54.2898 305.9856 15.26147682281593","OBJECT_ID":"2018-047A","OBJECT_NUMBER":"43476","SEMIMAJOR_AXIS":"6865.478","PERIOD":"94.355","APOGEE":"498.469","PERIGEE":"476.218","DECAYED":"0"},{"COMMENT":"GENERATED VIA SPACETRACK.ORG API","ORIGINATOR":"18 SPCS","NORAD_CAT_ID":"43476","OBJECT_NAME":"GRACE-FO 1","OBJECT_TYPE":"PAYLOAD","CLASSIFICATION_TYPE":"U","INTLDES":"18047A","EPOCH":"2023-06-14 18:57:04","EPOCH_MICROSECONDS":"851936","MEAN_MOTION":"15.26149078","ECCENTRICITY":"0.001618","INCLINATION":"88.9872","RA_OF_ASC_NODE":"349.4853","ARG_OF_PERICENTER":"53.3956","MEAN_ANOMALY":"306.8778","EPHEMERIS_TYPE":"0","ELEMENT_SET_NO":"999","REV_AT_EPOCH":"28163","BSTAR":"0.00010788","MEAN_MOTION_DOT":"0.00002824","MEAN_MOTION_DDOT":"0","FILE":"3933028","TLE_LINE0":"0 GRACE-FO 1","TLE_LINE1":"1 43476U 18047A   23165.78963949  .00002824  00000-0  10788-3 0  9999","TLE_LINE2":"2 43476  88.9872 349.4853 0016180  53.3956 306.8778 15.26149078281633","OBJECT_ID":"2018-047A","OBJECT_NUMBER":"43476","SEMIMAJOR_AXIS":"6865.474","PERIOD":"94.355","APOGEE":"498.447","PERIGEE":"476.231","DECAYED":"0"},{"COMMENT":"GENERATED VIA SPACETRACK.ORG API","ORIGINATOR":"18 SPCS","NORAD_CAT_ID":"43476","OBJECT_NAME":"GRACE-FO 1","OBJECT_TYPE":"PAYLOAD","CLASSIFICATION_TYPE":"U","INTLDES":"18047A","EPOCH":"2023-06-14 20:31:30","EPOCH_MICROSECONDS":"106848","MEAN_MOTION":"15.26149404","ECCENTRICITY":"0.0016169","INCLINATION":"88.9872","RA_OF_ASC_NODE":"349.4763","ARG_OF_PERICENTER":"53.2028","MEAN_ANOMALY":"307.0702","EPHEMERIS_TYPE":"0","ELEMENT_SET_NO":"999","REV_AT_EPOCH":"28164","BSTAR":"0.00010703","MEAN_MOTION_DOT":"0.00002802","MEAN_MOTION_DDOT":"0","FILE":"3933215","TLE_LINE0":"0 GRACE-FO 1","TLE_LINE1":"1 43476U 18047A   23165.85520957  .00002802  00000-0  10703-3 0  9998","TLE_LINE2":"2 43476  88.9872 349.4763 0016169  53.2028 307.0702 15.26149404281643","OBJECT_ID":"2018-047A","OBJECT_NUMBER":"43476","SEMIMAJOR_AXIS":"6865.473","PERIOD":"94.355","APOGEE":"498.439","PERIGEE":"476.237","DECAYED":"0"},{"COMMENT":"GENERATED VIA SPACETRACK.ORG API","ORIGINATOR":"18 SPCS","NORAD_CAT_ID":"43476","OBJECT_NAME":"GRACE-FO 1","OBJECT_TYPE":"PAYLOAD","CLASSIFICATION_TYPE":"U","INTLDES":"18047A","EPOCH":"2023-06-15 12:15:42","EPOCH_MICROSECONDS":"630912","MEAN_MOTION":"15.26153349","ECCENTRICITY":"0.0016083","INCLINATION":"88.987","RA_OF_ASC_NODE":"349.3871","ARG_OF_PERICENTER":"50.9754","MEAN_ANOMALY":"309.2923","EPHEMERIS_TYPE":"0","ELEMENT_SET_NO":"999","REV_AT_EPOCH":"28174","BSTAR":"0.00011174","MEAN_MOTION_DOT":"0.00002924","MEAN_MOTION_DDOT":"0","FILE":"3933820","TLE_LINE0":"0 GRACE-FO 1","TLE_LINE1":"1 43476U 18047A   23166.51091008  .00002924  00000-0  11174-3 0  9990","TLE_LINE2":"2 43476  88.9870 349.3871 0016083  50.9754 309.2923 15.26153349281748","OBJECT_ID":"2018-047A","OBJECT_NUMBER":"43476","SEMIMAJOR_AXIS":"6865.461","PERIOD":"94.355","APOGEE":"498.368","PERIGEE":"476.285","DECAYED":"0"},{"COMMENT":"GENERATED VIA SPACETRACK.ORG API","ORIGINATOR":"18 SPCS","NORAD_CAT_ID":"43476","OBJECT_NAME":"GRACE-FO 1","OBJECT_TYPE":"PAYLOAD","CLASSIFICATION_TYPE":"U","INTLDES":"18047A","EPOCH":"2023-06-15 18:33:23","EPOCH_MICROSECONDS":"607360","MEAN_MOTION":"15.26154597","ECCENTRICITY":"0.0016053","INCLINATION":"88.987","RA_OF_ASC_NODE":"349.3514","ARG_OF_PERICENTER":"50.0787","MEAN_ANOMALY":"310.187","EPHEMERIS_TYPE":"0","ELEMENT_SET_NO":"999","REV_AT_EPOCH":"28178","BSTAR":"0.00010853","MEAN_MOTION_DOT":"0.00002841","MEAN_MOTION_DDOT":"0","FILE":"3934071","TLE_LINE0":"0 GRACE-FO 1","TLE_LINE1":"1 43476U 18047A   23166.77318990  .00002841  00000-0  10853-3 0  9991","TLE_LINE2":"2 43476  88.9870 349.3514 0016053  50.0787 310.1870 15.26154597281788","OBJECT_ID":"2018-047A","OBJECT_NUMBER":"43476","SEMIMAJOR_AXIS":"6865.458","PERIOD":"94.355","APOGEE":"498.344","PERIGEE":"476.301","DECAYED":"0"}]